[{"OBJECT_NAME":"STARLINK-31488","OBJECT_ID":"2024-036M","EPOCH":"2025-09-13T06:37:53.720544","MEAN_MOTION":15.30196733,"ECCENTRICITY":0.00012524,"INCLINATION":53.1587,"RA_OF_ASC_NODE":181.9686,"ARG_OF_PERICENTER":71.6945,"MEAN_ANOMALY":288.4192,"EPHEMERIS_TYPE":0,"CLASSIFICATION_TYPE":"U","NORAD_CAT_ID":59009,"ELEMENT_SET_NO":999,"REV_AT_EPOCH":8816,"BSTAR":0.00010438827,"MEAN_MOTION_DOT":2.733e-5,"MEAN_MOTION_DDOT":0},{"OBJECT_NAME":"STARLINK-31528","OBJECT_ID":"2024-036N","EPOCH":"2025-09-13T01:40:42.574080","MEAN_MOTION":15.30184706,"ECCENTRICITY":0.00012371,"INCLINATION":53.1582,"RA_OF_ASC_NODE":183.5215,"ARG_OF_PERICENTER":72.3196,"MEAN_ANOMALY":287.794,"EPHEMERIS_TYPE":0,"CLASSIFICATION_TYPE":"U","NORAD_CAT_ID":59010,"ELEMENT_SET_NO":999,"REV_AT_EPOCH":8812,"BSTAR":6.2697058e-5,"MEAN_MOTION_DOT":1.497e-5,"MEAN_MOTION_DDOT":0},{"OBJECT_NAME":"STARLINK-31491","OBJECT_ID":"2024-036P","EPOCH":"2025-09-13T01:42:13.786560","MEAN_MOTION":15.30190978,"ECCENTRICITY":0.00010745,"INCLINATION":53.1603,"RA_OF_ASC_NODE":183.5287,"ARG_OF_PERICENTER":89.25,"MEAN_ANOMALY":270.8624,"EPHEMERIS_TYPE":0,"CLASSIFICATION_TYPE":"U","NORAD_CAT_ID":59011,"ELEMENT_SET_NO":999,"REV_AT_EPOCH":8812,"BSTAR":5.038124e-6,"MEAN_MOTION_DOT":-2.1e-6,"MEAN_MOTION_DDOT":0},{"OBJECT_NAME":"STARLINK-31465","OBJECT_ID":"2024-036Q","EPOCH":"2025-09-13T01:34:38.411040","MEAN_MOTION":15.30181024,"ECCENTRICITY":0.00012682,"INCLINATION":53.1596,"RA_OF_ASC_NODE":183.4976,"ARG_OF_PERICENTER":77.7064,"MEAN_ANOMALY":282.4079,"EPHEMERIS_TYPE":0,"CLASSIFICATION_TYPE":"U","NORAD_CAT_ID":59012,"ELEMENT_SET_NO":999,"REV_AT_EPOCH":8812,"BSTAR":4.5864149e-5,"MEAN_MOTION_DOT":9.99e-6,"MEAN_MOTION_DDOT":0},{"OBJECT_NAME":"STARLINK-31389","OBJECT_ID":"2024-036R","EPOCH":"2025-09-13T01:39:11.537856","MEAN_MOTION":15.30177401,"ECCENTRICITY":0.00013358,"INCLINATION":53.1592,"RA_OF_ASC_NODE":183.512,"ARG_OF_PERICENTER":91.5185,"MEAN_ANOMALY":268.5969,"EPHEMERIS_TYPE":0,"CLASSIFICATION_TYPE":"U","NORAD_CAT_ID":59013,"ELEMENT_SET_NO":999,"REV_AT_EPOCH":8813,"BSTAR":8.673406e-5,"MEAN_MOTION_DOT":2.209e-5,"MEAN_MOTION_DDOT":0},{"OBJECT_NAME":"STARLINK-31454","OBJECT_ID":"2024-036S","EPOCH":"2025-09-13T01:30:03.519936","MEAN_MOTION":15.3020197,"ECCENTRICITY":0.00011213,"INCLINATION":53.1608,"RA_OF_ASC_NODE":183.4761,"ARG_OF_PERICENTER":75.1449,"MEAN_ANOMALY":284.9676,"EPHEMERIS_TYPE":0,"CLASSIFICATION_TYPE":"U","NORAD_CAT_ID":59014,"ELEMENT_SET_NO":999,"REV_AT_EPOCH":8812,"BSTAR":8.2916529e-5,"MEAN_MOTION_DOT":2.098e-5,"MEAN_MOTION_DDOT":0},{"OBJECT_NAME":"STARLINK-31521","OBJECT_ID":"2024-036T","EPOCH":"2025-09-13T04:36:40.281696","MEAN_MOTION":15.30162358,"ECCENTRICITY":0.00015202,"INCLINATION":53.161,"RA_OF_ASC_NODE":182.862,"ARG_OF_PERICENTER":96.2578,"MEAN_ANOMALY":263.8596,"EPHEMERIS_TYPE":0,"CLASSIFICATION_TYPE":"U","NORAD_CAT_ID":59015,"ELEMENT_SET_NO":999,"REV_AT_EPOCH":8814,"BSTAR":7.5911163e-5,"MEAN_MOTION_DOT":1.887e-5,"MEAN_MOTION_DDOT":0},{"OBJECT_NAME":"STARLINK-31526","OBJECT_ID":"2024-036U","EPOCH":"2025-09-12T11:21:59.764032","MEAN_MOTION":15.30170939,"ECCENTRICITY":0.00011455,"INCLINATION":53.1597,"RA_OF_ASC_NODE":160.588,"ARG_OF_PERICENTER":55.4249,"MEAN_ANOMALY":304.686,"EPHEMERIS_TYPE":0,"CLASSIFICATION_TYPE":"U","NORAD_CAT_ID":59016,"ELEMENT_SET_NO":999,"REV_AT_EPOCH":8839,"BSTAR":0.00014656038,"MEAN_MOTION_DOT":3.98e-5,"MEAN_MOTION_DDOT":0},{"OBJECT_NAME":"STARLINK-31406","OBJECT_ID":"2024-036V","EPOCH":"2025-09-13T01:12:30.374784","MEAN_MOTION":15.39616511,"ECCENTRICITY":0.00012868,"INCLINATION":53.16,"RA_OF_ASC_NODE":171.3376,"ARG_OF_PERICENTER":93.742,"MEAN_ANOMALY":266.3732,"EPHEMERIS_TYPE":0,"CLASSIFICATION_TYPE":"U","NORAD_CAT_ID":59017,"ELEMENT_SET_NO":999,"REV_AT_EPOCH":8829,"BSTAR":9.8638182e-5,"MEAN_MOTION_DOT":3.547e-5,"MEAN_MOTION_DDOT":0},{"OBJECT_NAME":"STARLINK-31527","OBJECT_ID":"2024-036W","EPOCH":"2025-09-13T04:22:59.307168","MEAN_MOTION":15.30188498,"ECCENTRICITY":0.000126,"INCLINATION":53.1601,"RA_OF_ASC_NODE":182.8096,"ARG_OF_PERICENTER":88.1985,"MEAN_ANOMALY":271.916,"EPHEMERIS_TYPE":0,"CLASSIFICATION_TYPE":"U","NORAD_CAT_ID":59018,"ELEMENT_SET_NO":999,"REV_AT_EPOCH":8814,"BSTAR":2.342896e-5,"MEAN_MOTION_DOT":3.35e-6,"MEAN_MOTION_DDOT":0},{"OBJECT_NAME":"STARLINK-31436","OBJECT_ID":"2024-036X","EPOCH":"2025-09-13T04:51:51.171840","MEAN_MOTION":15.30190128,"ECCENTRICITY":0.00014147,"INCLINATION":53.1573,"RA_OF_ASC_NODE":182.9239,"ARG_OF_PERICENTER":84.3369,"MEAN_ANOMALY":275.7793,"EPHEMERIS_TYPE":0,"CLASSIFICATION_TYPE":"U","NORAD_CAT_ID":59019,"ELEMENT_SET_NO":999,"REV_AT_EPOCH":8814,"BSTAR":4.5923029e-5,"MEAN_MOTION_DOT":1.001e-5,"MEAN_MOTION_DDOT":0},{"OBJECT_NAME":"STARLINK-30996","OBJECT_ID":"2024-038A","EPOCH":"2025-09-12T21:02:43.875744","MEAN_MOTION":15.27576194,"ECCENTRICITY":9.253e-5,"INCLINATION":43.0022,"RA_OF_ASC_NODE":311.2475,"ARG_OF_PERICENTER":279.8735,"MEAN_ANOMALY":80.2012,"EPHEMERIS_TYPE":0,"CLASSIFICATION_TYPE":"U","NORAD_CAT_ID":59023,"ELEMENT_SET_NO":999,"REV_AT_EPOCH":8893,"BSTAR":5.2477409e-5,"MEAN_MOTION_DOT":1.182e-5,"MEAN_MOTION_DDOT":0},{"OBJECT_NAME":"STARLINK-31006","OBJECT_ID":"2024-038B","EPOCH":"2025-09-13T01:17:31.432992","MEAN_MOTION":15.27575982,"ECCENTRICITY":9.112e-5,"INCLINATION":43.0006,"RA_OF_ASC_NODE":259.7981,"ARG_OF_PERICENTER":273.3432,"MEAN_ANOMALY":86.7315,"EPHEMERIS_TYPE":0,"CLASSIFICATION_TYPE":"U","NORAD_CAT_ID":59024,"ELEMENT_SET_NO":999,"REV_AT_EPOCH":8817,"BSTAR":3.468432e-6,"MEAN_MOTION_DOT":-1.66e-6,"MEAN_MOTION_DDOT":0},{"OBJECT_NAME":"STARLINK-31178","OBJECT_ID":"2024-038C","EPOCH":"2025-09-12T13:26:44.716992","MEAN_MOTION":15.27585012,"ECCENTRICITY":0.00013246,"INCLINATION":43.0018,"RA_OF_ASC_NODE":313.1685,"ARG_OF_PERICENTER":236.5779,"MEAN_ANOMALY":123.4946,"EPHEMERIS_TYPE":0,"CLASSIFICATION_TYPE":"U","NORAD_CAT_ID":59025,"ELEMENT_SET_NO":999,"REV_AT_EPOCH":8740,"BSTAR":-6.3189576e-5,"MEAN_MOTION_DOT":-2.001e-5,"MEAN_MOTION_DDOT":0},{"OBJECT_NAME":"STARLINK-31227","OBJECT_ID":"2024-038D","EPOCH":"2025-09-13T04:38:42.093600","MEAN_MOTION":15.27575581,"ECCENTRICITY":0.00011404,"INCLINATION":42.9995,"RA_OF_ASC_NODE":309.3256,"ARG_OF_PERICENTER":282.7285,"MEAN_ANOMALY":77.3439,"EPHEMERIS_TYPE":0,"CLASSIFICATION_TYPE":"U","NORAD_CAT_ID":59026,"ELEMENT_SET_NO":999,"REV_AT_EPOCH":8761,"BSTAR":-1.503347e-6,"MEAN_MOTION_DOT":-3.03e-6,"MEAN_MOTION_DDOT":0},{"OBJECT_NAME":"STARLINK-30863","OBJECT_ID":"2024-038E","EPOCH":"2025-09-12T21:08:54.778848","MEAN_MOTION":15.25912411,"ECCENTRICITY":0.0001404,"INCLINATION":43.002,"RA_OF_ASC_NODE":311.2662,"ARG_OF_PERICENTER":269.4795,"MEAN_ANOMALY":90.5896,"EPHEMERIS_TYPE":0,"CLASSIFICATION_TYPE":"U","NORAD_CAT_ID":59027,"ELEMENT_SET_NO":999,"REV_AT_EPOCH":8745,"BSTAR":4.9503978e-5,"MEAN_MOTION_DOT":1.038e-5,"MEAN_MOTION_DDOT":0}]
