STARLINK-31488          
1 59009U 24036M   25256.27631621  .00002733  00000+0  10439-3 0  9990
2 59009  53.1587 181.9686 0001252  71.6945 288.4192 15.30196733 88160
STARLINK-31528          
1 59010U 24036N   25256.06993720  .00001497  00000+0  62697-4 0  9990
2 59010  53.1582 183.5215 0001237  72.3196 287.7940 15.30184706 88128
STARLINK-31491          
1 59011U 24036P   25256.07099290 -.00000210  00000+0  50381-5 0  9992
2 59011  53.1603 183.5287 0001074  89.2500 270.8624 15.30190978 88127
STARLINK-31465          
1 59012U 24036Q   25256.06572235  .00000999  00000+0  45864-4 0  9999
2 59012  53.1596 183.4976 0001268  77.7064 282.4079 15.30181024 88120
STARLINK-31389          
1 59013U 24036R   25256.06888354  .00002209  00000+0  86734-4 0  9999
2 59013  53.1592 183.5120 0001335  91.5185 268.5969 15.30177401 88130
STARLINK-31454          
1 59014U 24036S   25256.06254074  .00002098  00000+0  82917-4 0  9991
2 59014  53.1608 183.4761 0001121  75.1449 284.9676 15.30201970 88128
STARLINK-31521          
1 59015U 24036T   25256.19213289  .00001887  00000+0  75911-4 0  9990
2 59015  53.1610 182.8620 0001520  96.2578 263.8596 15.30162358 88144
STARLINK-31526          
1 59016U 24036U   25255.47360838  .00003980  00000+0  14656-3 0  9998
2 59016  53.1597 160.5880 0001145  55.4249 304.6860 15.30170939 88394
STARLINK-31406          
1 59017U 24036V   25256.05035156  .00003547  00000+0  98638-4 0  9998
2 59017  53.1600 171.3376 0001286  93.7420 266.3732 15.39616511 88293
STARLINK-31527          
1 59018U 24036W   25256.18263087  .00000335  00000+0  23429-4 0  9997
2 59018  53.1601 182.8096 0001260  88.1985 271.9160 15.30188498 88147
STARLINK-31436          
1 59019U 24036X   25256.20267560  .00001001  00000+0  45923-4 0  9995
2 59019  53.1573 182.9239 0001414  84.3369 275.7793 15.30190128 88148
STARLINK-30996          
1 59023U 24038A   25255.87689671  .00001182  00000+0  52477-4 0  9997
2 59023  43.0022 311.2475 0000925 279.8735  80.2012 15.27576194 88930
STARLINK-31006          
1 59024U 24038B   25256.05383603 -.00000166  00000+0  34684-5 0  9998
2 59024  43.0006 259.7981 0000911 273.3432  86.7315 15.27575982 88176
STARLINK-31178          
1 59025U 24038C   25255.56023978 -.00002001  00000+0 -63190-4 0  9994
2 59025  43.0018 313.1685 0001324 236.5779 123.4946 15.27585012 87409
STARLINK-31227          
1 59026U 24038D   25256.19354275 -.00000303  00000+0 -15033-5 0  9999
2 59026  42.9995 309.3256 0001140 282.7285  77.3439 15.27575581 87611
STARLINK-30863          
1 59027U 24038E   25255.88118957  .00001038  00000+0  49504-4 0  9993
2 59027  43.0020 311.2662 0001404 269.4795  90.5896 15.25912411 87458
